[{"OBJECT_NAME":"STARLINK-32916","OBJECT_ID":"2025-027R","EPOCH":"2025-08-22T06:19:31.437984","MEAN_MOTION":15.27620123,"ECCENTRICITY":0.00013026,"INCLINATION":42.9991,"RA_OF_ASC_NODE":175.0326,"ARG_OF_PERICENTER":273.9229,"MEAN_ANOMALY":86.1473,"EPHEMERIS_TYPE":0,"CLASSIFICATION_TYPE":"U","NORAD_CAT_ID":62922,"ELEMENT_SET_NO":999,"REV_AT_EPOCH":3104,"BSTAR":0.0006702352,"MEAN_MOTION_DOT":0.0001825,"MEAN_MOTION_DDOT":0},{"OBJECT_NAME":"STARLINK-32905","OBJECT_ID":"2025-027S","EPOCH":"2025-08-22T05:16:52.049568","MEAN_MOTION":15.27582957,"ECCENTRICITY":6.12e-5,"INCLINATION":42.9944,"RA_OF_ASC_NODE":175.574,"ARG_OF_PERICENTER":85.6469,"MEAN_ANOMALY":274.4452,"EPHEMERIS_TYPE":0,"CLASSIFICATION_TYPE":"U","NORAD_CAT_ID":62923,"ELEMENT_SET_NO":999,"REV_AT_EPOCH":3103,"BSTAR":0.00078987964,"MEAN_MOTION_DOT":0.00021539,"MEAN_MOTION_DDOT":0},{"OBJECT_NAME":"STARLINK-32871","OBJECT_ID":"2025-027T","EPOCH":"2025-08-22T04:54:39.206016","MEAN_MOTION":15.2758553,"ECCENTRICITY":0.00010238,"INCLINATION":43,"RA_OF_ASC_NODE":175.4494,"ARG_OF_PERICENTER":273.3783,"MEAN_ANOMALY":86.6952,"EPHEMERIS_TYPE":0,"CLASSIFICATION_TYPE":"U","NORAD_CAT_ID":62924,"ELEMENT_SET_NO":999,"REV_AT_EPOCH":3103,"BSTAR":0.00051546969,"MEAN_MOTION_DOT":0.00013952,"MEAN_MOTION_DDOT":0},{"OBJECT_NAME":"STARLINK-32920","OBJECT_ID":"2025-027U","EPOCH":"2025-08-22T04:49:05.974176","MEAN_MOTION":15.27580343,"ECCENTRICITY":0.00011976,"INCLINATION":42.9981,"RA_OF_ASC_NODE":175.4193,"ARG_OF_PERICENTER":272.7667,"MEAN_ANOMALY":87.3047,"EPHEMERIS_TYPE":0,"CLASSIFICATION_TYPE":"U","NORAD_CAT_ID":62925,"ELEMENT_SET_NO":999,"REV_AT_EPOCH":3103,"BSTAR":0.00058960334,"MEAN_MOTION_DOT":0.00015998,"MEAN_MOTION_DDOT":0},{"OBJECT_NAME":"STARLINK-32922","OBJECT_ID":"2025-027V","EPOCH":"2025-08-22T05:11:18.258720","MEAN_MOTION":15.27589231,"ECCENTRICITY":0.00013924,"INCLINATION":43.0003,"RA_OF_ASC_NODE":175.5386,"ARG_OF_PERICENTER":257.5906,"MEAN_ANOMALY":102.479,"EPHEMERIS_TYPE":0,"CLASSIFICATION_TYPE":"U","NORAD_CAT_ID":62926,"ELEMENT_SET_NO":999,"REV_AT_EPOCH":3103,"BSTAR":0.0010780436,"MEAN_MOTION_DOT":0.00029531,"MEAN_MOTION_DDOT":0},{"OBJECT_NAME":"STARLINK-32891","OBJECT_ID":"2025-027W","EPOCH":"2025-08-22T05:20:33.129888","MEAN_MOTION":15.27596346,"ECCENTRICITY":0.00013624,"INCLINATION":43.0015,"RA_OF_ASC_NODE":175.5927,"ARG_OF_PERICENTER":270.1147,"MEAN_ANOMALY":89.9548,"EPHEMERIS_TYPE":0,"CLASSIFICATION_TYPE":"U","NORAD_CAT_ID":62927,"ELEMENT_SET_NO":999,"REV_AT_EPOCH":3115,"BSTAR":0.00073252077,"MEAN_MOTION_DOT":0.0001996,"MEAN_MOTION_DDOT":0},{"OBJECT_NAME":"STARLINK-32728","OBJECT_ID":"2025-029A","EPOCH":"2025-08-20T20:47:17.292768","MEAN_MOTION":15.30189196,"ECCENTRICITY":9.51e-5,"INCLINATION":53.1586,"RA_OF_ASC_NODE":82.9206,"ARG_OF_PERICENTER":87.5892,"MEAN_ANOMALY":272.5218,"EPHEMERIS_TYPE":0,"CLASSIFICATION_TYPE":"U","NORAD_CAT_ID":62948,"ELEMENT_SET_NO":999,"REV_AT_EPOCH":3064,"BSTAR":0.00091762,"MEAN_MOTION_DOT":0.00026907,"MEAN_MOTION_DDOT":0},{"OBJECT_NAME":"STARLINK-32857","OBJECT_ID":"2025-029B","EPOCH":"2025-08-20T20:24:29.716416","MEAN_MOTION":15.30198767,"ECCENTRICITY":0.0001171,"INCLINATION":53.1606,"RA_OF_ASC_NODE":82.8286,"ARG_OF_PERICENTER":85.6481,"MEAN_ANOMALY":274.4653,"EPHEMERIS_TYPE":0,"CLASSIFICATION_TYPE":"U","NORAD_CAT_ID":62949,"ELEMENT_SET_NO":999,"REV_AT_EPOCH":3064,"BSTAR":0.00040517,"MEAN_MOTION_DOT":0.00011659,"MEAN_MOTION_DDOT":0},{"OBJECT_NAME":"STARLINK-32850","OBJECT_ID":"2025-029C","EPOCH":"2025-08-21T23:57:21.020544","MEAN_MOTION":15.30205472,"ECCENTRICITY":9.901e-5,"INCLINATION":53.1575,"RA_OF_ASC_NODE":80.0273,"ARG_OF_PERICENTER":78.4713,"MEAN_ANOMALY":281.6399,"EPHEMERIS_TYPE":0,"CLASSIFICATION_TYPE":"U","NORAD_CAT_ID":62950,"ELEMENT_SET_NO":999,"REV_AT_EPOCH":3075,"BSTAR":0.00063855704,"MEAN_MOTION_DOT":0.00018604,"MEAN_MOTION_DDOT":0},{"OBJECT_NAME":"STARLINK-32875","OBJECT_ID":"2025-029D","EPOCH":"2025-08-20T21:02:29.189472","MEAN_MOTION":15.30197695,"ECCENTRICITY":0.0001115,"INCLINATION":53.1583,"RA_OF_ASC_NODE":82.9893,"ARG_OF_PERICENTER":91.4233,"MEAN_ANOMALY":268.6895,"EPHEMERIS_TYPE":0,"CLASSIFICATION_TYPE":"U","NORAD_CAT_ID":62951,"ELEMENT_SET_NO":999,"REV_AT_EPOCH":3061,"BSTAR":0.00059853,"MEAN_MOTION_DOT":0.00017408,"MEAN_MOTION_DDOT":0},{"OBJECT_NAME":"STARLINK-32865","OBJECT_ID":"2025-029E","EPOCH":"2025-08-22T13:54:42.532416","MEAN_MOTION":15.30182354,"ECCENTRICITY":0.00014962,"INCLINATION":53.159,"RA_OF_ASC_NODE":77.2561,"ARG_OF_PERICENTER":90.4999,"MEAN_ANOMALY":269.6173,"EPHEMERIS_TYPE":0,"CLASSIFICATION_TYPE":"U","NORAD_CAT_ID":62952,"ELEMENT_SET_NO":999,"REV_AT_EPOCH":3084,"BSTAR":0.00058681829,"MEAN_MOTION_DOT":0.00017051,"MEAN_MOTION_DDOT":0},{"OBJECT_NAME":"STARLINK-32884","OBJECT_ID":"2025-029F","EPOCH":"2025-08-20T20:57:55.612512","MEAN_MOTION":15.30195114,"ECCENTRICITY":0.0001067,"INCLINATION":53.1579,"RA_OF_ASC_NODE":82.9673,"ARG_OF_PERICENTER":90.6823,"MEAN_ANOMALY":269.43,"EPHEMERIS_TYPE":0,"CLASSIFICATION_TYPE":"U","NORAD_CAT_ID":62953,"ELEMENT_SET_NO":999,"REV_AT_EPOCH":3061,"BSTAR":0.00068198,"MEAN_MOTION_DOT":0.0001989,"MEAN_MOTION_DDOT":0},{"OBJECT_NAME":"STARLINK-32874","OBJECT_ID":"2025-029G","EPOCH":"2025-08-20T20:38:10.052448","MEAN_MOTION":15.3017584,"ECCENTRICITY":0.0001331,"INCLINATION":53.1591,"RA_OF_ASC_NODE":82.88,"ARG_OF_PERICENTER":82.1745,"MEAN_ANOMALY":277.9407,"EPHEMERIS_TYPE":0,"CLASSIFICATION_TYPE":"U","NORAD_CAT_ID":62954,"ELEMENT_SET_NO":999,"REV_AT_EPOCH":3061,"BSTAR":0.00066846,"MEAN_MOTION_DOT":0.00019476,"MEAN_MOTION_DDOT":0},{"OBJECT_NAME":"STARLINK-32880","OBJECT_ID":"2025-029H","EPOCH":"2025-08-20T19:33:45.241344","MEAN_MOTION":15.3019696,"ECCENTRICITY":0.0001171,"INCLINATION":53.1585,"RA_OF_ASC_NODE":85.4387,"ARG_OF_PERICENTER":65.2124,"MEAN_ANOMALY":294.8998,"EPHEMERIS_TYPE":0,"CLASSIFICATION_TYPE":"U","NORAD_CAT_ID":62955,"ELEMENT_SET_NO":999,"REV_AT_EPOCH":3057,"BSTAR":0.00059808,"MEAN_MOTION_DOT":0.00017394,"MEAN_MOTION_DDOT":0},{"OBJECT_NAME":"STARLINK-32815","OBJECT_ID":"2025-029J","EPOCH":"2025-08-21T20:25:41.342016","MEAN_MOTION":15.30201423,"ECCENTRICITY":9.604e-5,"INCLINATION":53.1589,"RA_OF_ASC_NODE":78.4031,"ARG_OF_PERICENTER":73.5026,"MEAN_ANOMALY":286.6081,"EPHEMERIS_TYPE":0,"CLASSIFICATION_TYPE":"U","NORAD_CAT_ID":62956,"ELEMENT_SET_NO":999,"REV_AT_EPOCH":3076,"BSTAR":0.00063048139,"MEAN_MOTION_DOT":0.00018361,"MEAN_MOTION_DDOT":0},{"OBJECT_NAME":"STARLINK-32879","OBJECT_ID":"2025-029K","EPOCH":"2025-08-20T20:08:42.285984","MEAN_MOTION":15.301944,"ECCENTRICITY":0.0001366,"INCLINATION":53.1599,"RA_OF_ASC_NODE":85.5907,"ARG_OF_PERICENTER":98.1167,"MEAN_ANOMALY":261.9989,"EPHEMERIS_TYPE":0,"CLASSIFICATION_TYPE":"U","NORAD_CAT_ID":62957,"ELEMENT_SET_NO":999,"REV_AT_EPOCH":3056,"BSTAR":0.00039138,"MEAN_MOTION_DOT":0.00011248,"MEAN_MOTION_DDOT":0},{"OBJECT_NAME":"STARLINK-32885","OBJECT_ID":"2025-029L","EPOCH":"2025-08-21T23:35:18.877632","MEAN_MOTION":15.30200767,"ECCENTRICITY":0.00010216,"INCLINATION":53.1586,"RA_OF_ASC_NODE":77.8009,"ARG_OF_PERICENTER":75.4072,"MEAN_ANOMALY":284.7042,"EPHEMERIS_TYPE":0,"CLASSIFICATION_TYPE":"U","NORAD_CAT_ID":62958,"ELEMENT_SET_NO":999,"REV_AT_EPOCH":3077,"BSTAR":0.00050694071,"MEAN_MOTION_DOT":0.00014685,"MEAN_MOTION_DDOT":0},{"OBJECT_NAME":"STARLINK-32896","OBJECT_ID":"2025-029M","EPOCH":"2025-08-21T23:05:50.816544","MEAN_MOTION":15.30202618,"ECCENTRICITY":0.00011358,"INCLINATION":53.16,"RA_OF_ASC_NODE":80.5108,"ARG_OF_PERICENTER":84.9551,"MEAN_ANOMALY":275.158,"EPHEMERIS_TYPE":0,"CLASSIFICATION_TYPE":"U","NORAD_CAT_ID":62959,"ELEMENT_SET_NO":999,"REV_AT_EPOCH":3073,"BSTAR":0.0004080827,"MEAN_MOTION_DOT":0.00011747,"MEAN_MOTION_DDOT":0},{"OBJECT_NAME":"STARLINK-32877","OBJECT_ID":"2025-029N","EPOCH":"2025-08-20T21:51:52.555680","MEAN_MOTION":15.30189609,"ECCENTRICITY":0.0001211,"INCLINATION":53.1596,"RA_OF_ASC_NODE":85.3255,"ARG_OF_PERICENTER":85.2534,"MEAN_ANOMALY":274.8605,"EPHEMERIS_TYPE":0,"CLASSIFICATION_TYPE":"U","NORAD_CAT_ID":62960,"ELEMENT_SET_NO":999,"REV_AT_EPOCH":3055,"BSTAR":0.00080962,"MEAN_MOTION_DOT":0.00023688,"MEAN_MOTION_DDOT":0},{"OBJECT_NAME":"STARLINK-32889","OBJECT_ID":"2025-029P","EPOCH":"2025-08-20T21:56:26.132640","MEAN_MOTION":15.30182635,"ECCENTRICITY":0.0001166,"INCLINATION":53.1602,"RA_OF_ASC_NODE":85.3474,"ARG_OF_PERICENTER":112.3886,"MEAN_ANOMALY":247.7239,"EPHEMERIS_TYPE":0,"CLASSIFICATION_TYPE":"U","NORAD_CAT_ID":62961,"ELEMENT_SET_NO":999,"REV_AT_EPOCH":3057,"BSTAR":0.00068973,"MEAN_MOTION_DOT":0.00020113,"MEAN_MOTION_DDOT":0},{"OBJECT_NAME":"STARLINK-32858","OBJECT_ID":"2025-029Q","EPOCH":"2025-08-20T20:31:20.048160","MEAN_MOTION":15.30197617,"ECCENTRICITY":0.0001038,"INCLINATION":53.1611,"RA_OF_ASC_NODE":84.978,"ARG_OF_PERICENTER":78.9762,"MEAN_ANOMALY":281.1356,"EPHEMERIS_TYPE":0,"CLASSIFICATION_TYPE":"U","NORAD_CAT_ID":62962,"ELEMENT_SET_NO":999,"REV_AT_EPOCH":3055,"BSTAR":0.00056163,"MEAN_MOTION_DOT":0.0001631,"MEAN_MOTION_DDOT":0},{"OBJECT_NAME":"STARLINK-32882","OBJECT_ID":"2025-029R","EPOCH":"2025-08-21T23:38:21.164352","MEAN_MOTION":15.30201454,"ECCENTRICITY":0.00011443,"INCLINATION":53.1583,"RA_OF_ASC_NODE":77.8116,"ARG_OF_PERICENTER":84.0613,"MEAN_ANOMALY":276.0519,"EPHEMERIS_TYPE":0,"CLASSIFICATION_TYPE":"U","NORAD_CAT_ID":62963,"ELEMENT_SET_NO":999,"REV_AT_EPOCH":3077,"BSTAR":0.00033726127,"MEAN_MOTION_DOT":9.643e-5,"MEAN_MOTION_DDOT":0},{"OBJECT_NAME":"STARLINK-32887","OBJECT_ID":"2025-029S","EPOCH":"2025-08-20T20:51:50.840352","MEAN_MOTION":15.30185037,"ECCENTRICITY":0.0001055,"INCLINATION":53.1583,"RA_OF_ASC_NODE":82.9409,"ARG_OF_PERICENTER":92.2854,"MEAN_ANOMALY":267.8267,"EPHEMERIS_TYPE":0,"CLASSIFICATION_TYPE":"U","NORAD_CAT_ID":62964,"ELEMENT_SET_NO":999,"REV_AT_EPOCH":3060,"BSTAR":0.00069297,"MEAN_MOTION_DOT":0.00020211,"MEAN_MOTION_DDOT":0}]
